CHUTIAN-2 A             
1 66409U 25256A   25322.50365082  .00000093  00000+0  34994-4 0  9992
2 66409  98.2797  27.6905 0012500 254.7688 105.2125 14.50675371  1361
CHUTIAN-2 B             
1 66410U 25256B   25322.50268110  .00000987  00000+0  26078-3 0  9993
2 66410  98.2824  27.6953 0012682 259.3018 100.6749 14.50978350  1360
ZK-1A R/B               
1 66411U 25256C   25322.52449708  .00003131  00000+0  14018-3 0  9995
2 66411  98.3257  28.5506 0233004 325.7211  32.9155 15.01166861  1419
HULIANWANG DIGUI 13A    
1 66412U 25258A   25317.73056207  .00000041  00000+0  83956-4 0  9998
2 66412  50.0047  24.1929 0013881 257.7847 102.1513 14.25865331   523
HULIANWANG DIGUI 13B    
1 66413U 25258B   25320.39321609  .00000122  00000+0  11719-3 0  9993
2 66413  50.0051  12.9380 0013184 265.6853  94.2554 14.25999228   907
HULIANWANG DIGUI 13C    
1 66414U 25258C   25319.13180464  .00000144  00000+0  12667-3 0  9993
2 66414  50.0035  18.2644 0013241 262.4619  97.4791 14.25997524   726
HULIANWANG DIGUI 13D    
1 66415U 25258D   25317.44978209  .00000129  00000+0  12023-3 0  9997
2 66415  50.0051  25.3748 0013151 262.1731  97.7690 14.26053887   481
HULIANWANG DIGUI 13E    
1 66416U 25258E   25319.34135603  .00000140  00000+0  12439-3 0  9996
2 66416  50.0061  17.3799 0012455 268.0844  91.8644 14.26185204   759
HULIANWANG DIGUI 13F    
1 66417U 25258F   25316.60855652  .00000101  00000+0  10833-3 0  9999
2 66417  50.0012  28.9164 0012058 253.6622 106.2967 14.26237817   367
HULIANWANG DIGUI 13G    
1 66418U 25258G   25317.72963347  .00000140  00000+0  12432-3 0  9995
2 66418  50.0009  24.1743 0012467 260.3776  99.5729 14.26232782   528
HULIANWANG DIGUI 13H    
1 66419U 25258H   25318.49989882  .00000137  00000+0  12262-3 0  9990
2 66419  50.0011  20.9157 0011467 262.6507  97.3104 14.26388412   638
HULIANWANG DIGUI 13J    
1 66420U 25258J   25319.41024359  .00000134  00000+0  12129-3 0  9993
2 66420  50.0035  17.0701 0011005 270.1786  89.7867 14.26504609   751
